YAHSAT 1B               
1 38245U 12016A   23121.86845394  .00000135  00000+0  00000+0 0  9995
2 38245   0.0101 223.6214 0002630 196.9944 159.1772  1.00271121 40460
AEHF-2 (USA 235)        
1 38254U 12019A   23122.46561274 -.00000148  00000+0  00000+0 0  9992
2 38254   4.0350  62.0772 0002615 329.3150 262.1300  1.00273216 40221
JCSAT-13                
1 38331U 12023A   23121.89496425 -.00000348  00000+0  00000+0 0  9996
2 38331   0.0160 212.7625 0003214 225.0704 227.9218  1.00271544 40078
VINASAT-2               
1 38332U 12023B   23121.89690190 -.00000321  00000+0  00000+0 0  9993
2 38332   0.0188  79.0089 0002774 341.9948 253.2943  1.00268463 35207
NIMIQ 6                 
1 38342U 12026A   23122.03615853 -.00000165  00000+0  00000+0 0  9993
2 38342   0.0579  82.1777 0002703 310.3560 109.0809  1.00270654 40146
CHINASAT 2A (ZX 2A)     
1 38352U 12028A   23121.96786157 -.00000284  00000+0  00000+0 0  9995
2 38352   0.0294 346.1095 0001923  32.9882 287.2294  1.00271038 40182
INTELSAT 19 (IS-19)     
1 38356U 12030A   23122.56165214 -.00000046  00000+0  00000+0 0  9990
2 38356   0.0206 269.2534 0003076 134.7079 184.4510  1.00271704 40068
ECHOSTAR 17             
1 38551U 12035A   23122.54202752 -.00000065  00000+0  00000+0 0  9990
2 38551   0.0148 245.0788 0001885 182.9373 240.2077  1.00269350 39679
METEOSAT-10 (MSG-3)     
1 38552U 12035B   23122.34094760  .00000004  00000+0  00000+0 0  9999
2 38552   2.0831  54.4861 0000353 316.1201 331.9437  1.00275948 39763
SES-5                   
1 38652U 12036A   23122.29216137  .00000044  00000+0  00000+0 0  9993
2 38652   0.0516 295.1312 0002073 106.3718 288.6116  1.00271981 39619
TIANLIAN 1-03           
1 38730U 12040A   23122.63183600  .00000137  00000+0  00000+0 0  9994
2 38730   2.8258  87.4311 0008626 343.7344  36.9768  1.00270116 39540
INTELSAT 20 (IS-20)     
1 38740U 12043A   23122.49803803 -.00000014  00000+0  00000+0 0  9991
2 38740   0.0223 149.0911 0001712  37.5293 281.3242  1.00272937 39382
HYLAS 2                 
1 38741U 12043B   23122.00791785  .00000163  00000+0  00000+0 0  9998
2 38741   0.0201 108.9401 0001825 291.8161 212.7872  1.00271201 39392
INTELSAT 21 (IS-21)     
1 38749U 12045A   23122.47284741 -.00000274  00000+0  00000+0 0  9992
2 38749   0.0141 276.8578 0002330 128.5512 286.9419  1.00268015 39198
ASTRA 2F                
1 38778U 12051A   23122.05986734  .00000159  00000+0  00000+0 0  9997
2 38778   0.0378 229.7723 0000543  32.6893   7.0109  1.00273599 38833
GSAT-10                 
1 38779U 12051B   23121.90145743 -.00000157  00000+0  00000+0 0  9997
2 38779   0.0315 259.5833 0002000  74.0499 293.4929  1.00273832 38662
INTELSAT 23 (IS-23)     
1 38867U 12057A   23121.75694968 -.00000276  00000+0  00000+0 0  9994
2 38867   0.0155 244.3329 0002060 151.8473  42.7143  1.00263347 38489
BEIDOU-2 G6             
1 38953U 12059A   23121.90145721 -.00000166  00000+0  00000+0 0  9995
2 38953   1.7173  82.3688 0011346 310.8702 234.9488  1.00272506 38451
LUCH-5B                 
1 38977U 12061A   23122.13168108 -.00000123  00000+0  00000+0 0  9997
2 38977   7.9868  60.1462 0003191  35.6248 155.1204  1.00272689 38728
YAMAL 300K              
1 38978U 12061B   23122.58411719  .00000082  00000+0  00000+0 0  9999
2 38978   0.0078 224.3538 0000925  28.8433   0.2676  1.00272741 38425
STAR ONE C3             
1 38991U 12062A   23122.46944799 -.00000239  00000+0  00000+0 0  9996
2 38991   0.0141 268.6172 0002098 143.0152 262.4891  1.00270152 38400
EUTELSAT 21B            
1 38992U 12062B   23122.13020931  .00000139  00000+0  00000+0 0  9992
2 38992   0.0716 354.4494 0002654  51.8184 242.0053  1.00273873 38417
ECHOSTAR 16             
1 39008U 12065A   23121.75529354 -.00000273  00000+0  00000+0 0  9994
2 39008   0.0127 238.6462 0002179 179.4095  11.7636  1.00269428 38161
CHINASAT 12 (ZX 12)     
1 39017U 12067A   23122.06091172 -.00000197  00000+0  00000+0 0  9998
2 39017   0.0304 143.8470 0002194 234.3735 310.9100  1.00270061 38258
EUTELSAT 70B            
1 39020U 12069A   23121.88967514 -.00000035  00000+0  00000+0 0  9996
2 39020   0.0731  32.8009 0000674 153.5938  63.9202  1.00271504 38058
YAMAL 402               
1 39022U 12070A   23122.02856532  .00000095  00000+0  00000+0 0  9999
2 39022   0.0012 243.9797 0003766 145.4160 255.4760  1.00271638 38148
SKYNET 5D               
1 39034U 12075A   23121.87315784  .00000107  00000+0  00000+0 0  9992
2 39034   0.0724  14.5511 0003433  26.4715 185.6022  1.00273090 37702
MEXSAT 3                
1 39035U 12075B   23122.53194828 -.00000015  00000+0  00000+0 0  9990
2 39035   0.0558  72.4709 0002070 320.6535 263.7663  1.00272392 38024
TDRS 11                 
1 39070U 13004A   23122.25982355  .00000085  00000+0  00000+0 0  9997
2 39070   2.7272 356.4769 0006562  54.8478  87.8056  1.00276653 37538
AMAZONAS 3              
1 39078U 13006A   23122.47223726 -.00000272  00000+0  00000+0 0  9990
2 39078   0.0341 144.1337 0001649 281.7283 263.2660  1.00270595 37522
AZERSPACE 1             
1 39079U 13006B   23122.42180372  .00000143  00000+0  00000+0 0  9991
2 39079   0.0133 266.7759 0002444 171.9265 339.2120  1.00272587 37488
SBIRS GEO-2 (USA 241)   
1 39120U 13011A   23121.75991328 -.00000248  00000+0  00000+0 0  9997
2 39120   2.3006  36.3890 0002043 359.6422  58.9553  1.00271423 37080
EUTELSAT 117 WEST A     
1 39122U 13012A   23122.03101581 -.00000004  00000+0  00000+0 0  9996
2 39122   0.0262  18.2554 0002868  18.7222  77.0731  1.00272399 37019
ANIK G1                 
1 39127U 13014A   23121.67449181 -.00000066  00000+0  00000+0 0  9991
2 39127   0.0536  85.1260 0001674 271.6484 358.0684  1.00272140 36796
CHINASAT 11 (ZX 11)     
1 39157U 13020A   23121.32453061 -.00000284  00000+0  00000+0 0  9997
2 39157   0.0188 252.3536 0001626 103.4214  77.9560  1.00273648 36699
EUTELSAT 7B             
1 39163U 13022A   23122.34242941  .00000058  00000+0  00000+0 0  9990
2 39163   0.0751  25.1624 0005583 356.1600 328.9433  1.00272230 36513
WGS F5 (USA 243)        
1 39168U 13024A   23122.11547845 -.00000275  00000+0  00000+0 0  9995
2 39168   0.0143 263.6366 0000559   0.9955 304.2032  1.00273754 36378
SES-6                   
1 39172U 13026A   23122.47633400 -.00000251  00000+0  00000+0 0  9998
2 39172   0.0279 306.9733 0002144  98.8883 305.2495  1.00271118 36264
IRNSS-1A                
1 39199U 13034A   23121.97198590  .00000108  00000+0  00000+0 0  9996
2 39199  33.1458  80.5607 0017530 186.1061 358.0234  1.00279231 36191
MUOS-2                  
1 39206U 13036A   23121.80403509  .00000074  00000+0  00000+0 0  9990
2 39206   3.0191  32.5519 0051158 178.8981 120.4461  1.00269088 35733
ALPHASAT                
1 39215U 13038A   23122.13090662  .00000144  00000+0  00000+0 0  9999
2 39215   2.8233  10.9807 0002043  57.5519 223.2472  1.00271457 35812
INSAT-3D                
1 39216U 13038B   23122.45607704 -.00000146  00000+0  00000+0 0  9999
2 39216   0.0638  87.4557 0001484 308.9401  69.9763  1.00271858 35851
WGS F6 (USA 244)        
1 39222U 13041A   23121.74056270  .00000097  00000+0  00000+0 0  9991
2 39222   0.0140 250.8620 0000138 154.7578 305.1906  1.00270718 34598
ES'HAIL 1               
1 39233U 13044A   23121.84961271  .00000152  00000+0  00000+0 0  9995
2 39233   0.0570  22.1188 0002053  15.1812 153.5552  1.00271638 35444
GSAT-7                  
1 39234U 13044B   23121.89320883 -.00000069  00000+0  00000+0 0  9997
2 39234   0.0568  88.4040 0006272 199.9675 326.7467  1.00272244 35442
AMOS-4                  
1 39237U 13045A   23122.42563897  .00000017  00000+0  00000+0 0  9997
2 39237   0.0441 100.4112 0003099 284.4848  53.4212  1.00272469 35447
AEHF-3 (USA 246)        
1 39256U 13050A   23122.48152966  .00000146  00000+0  00000+0 0  9994
2 39256   2.4597  73.8308 0051468 188.9908 335.6266  1.00268276 35236
ASTRA 2E                
1 39285U 13056A   23121.85196810  .00000159  00000+0  00000+0 0  9992
2 39285   0.0615 345.9182 0002471  61.3331 147.4644  1.00273158 34985
FM-6                    
1 39360U 13058A   23121.73117889 -.00000008  00000+0  00000+0 0  9998
2 39360   0.0235 284.6992 0000830 332.4973 109.2678  1.00269951 34604
RADUGA-1M 3             
1 39375U 13062A   23122.55257911  .00000168  00000+0  00000+0 0  9997
2 39375   3.0400  86.1449 0001748 216.8153 151.1199  1.00273131 34680
SES-8                   
1 39460U 13071A   23121.88586225 -.00000261  00000+0  00000+0 0  9995
2 39460   0.0133 210.8833 0002554 206.5151 216.0711  1.00271187 32978
INMARSAT 5-F1           
1 39476U 13073A   23121.74007635  .00000036  00000+0  00000+0 0  9991
2 39476   0.0133 249.8765 0000434 159.5131 139.0397  1.00269909 34134
TKSAT-1 (TUPAC KATARI)  
1 39481U 13075A   23121.89355330 -.00000186  00000+0  00000+0 0  9990
2 39481   0.0177 251.6906 0003016 131.3274  71.0234  1.00268788 34398
EXPRESS-AM5             
1 39487U 13077A   23121.63169251 -.00000272  00000+0  00000+0 0  9991
2 39487   0.0101 265.4012 0001198 110.8105 210.5449  1.00271917 34875
GSAT-14                 
1 39498U 14001A   23122.49917118 -.00000066  00000+0  00000+0 0  9990
2 39498   0.0180 250.8113 0003061  58.8817 164.1751  1.00269725 34139
THAICOM 6               
1 39500U 14002A   23121.89675263 -.00000112  00000+0  00000+0 0  9992
2 39500   0.0870 101.6419 0002368 346.9290 172.2758  1.00268792 34002
TDRS 12                 
1 39504U 14004A   23122.47624684 -.00000266  00000+0  00000+0 0  9994
2 39504   3.6428 353.6775 0004357 122.9046 234.1109  1.00274083 34007
ABS-2                   
1 39508U 14006A   23122.49934551 -.00000076  00000+0  00000+0 0  9998
2 39508   0.0559  82.3276 0003252 332.0478  60.4815  1.00272065 33871
ATHENA-FIDUS            
1 39509U 14006B   23122.06178497  .00000163  00000+0  00000+0 0  9997
2 39509   0.0261  77.1752 0001538 329.7181 232.8646  1.00271905 34041
